STARLINK-34100          
1 64385U 25127R   26170.62596729  .00012013  00000+0  44513-3 0  9991
2 64385  43.0002 324.3802 0001784 272.2853  87.7795 15.27595916 58004
STARLINK-34269          
1 64386U 25127S   26170.44893735  .00015148  00000+0  55872-3 0  9991
2 64386  42.9993 324.7705 0001157 271.3543  88.7176 15.27588216 58030
STARLINK-34351          
1 64387U 25127T   26170.44765475  .00023564  00000+0  86287-3 0  9996
2 64387  43.0017 324.7600 0000672 254.0564 106.0214 15.27587927 58031
STARLINK-34198          
1 64388U 25127U   26170.51175219  .00008250  00000+0  30894-3 0  9994
2 64388  42.9993 324.3823 0001249 274.5370  85.5338 15.27583655 58042
STARLINK-34279          
1 64389U 25127V   26170.50933084  .00023107  00000+0  84623-3 0  9993
2 64389  43.0004 325.2307 0001587 261.2624  98.8048 15.27593853 58030
STARLINK-34292          
1 64390U 25127W   26170.42209866  .00016287  00000+0  59973-3 0  9991
2 64390  43.0023 325.4285 0001209 264.7197  95.3516 15.27598185 58028
STARLINK-34278          
1 64391U 25127X   26170.45152515  .00032624  00000+0  11890-2 0  9991
2 64391  43.0017 324.7866 0001450 276.2527  83.8159 15.27601855 58037
STARLINK-33802          
1 64392U 25127Y   26170.49905180  .00026871  00000+0  98184-3 0  9999
2 64392  43.0013 325.1498 0001800 265.5544  94.5102 15.27599985 58081
ZHANGHENG 1-02 (CSES-2) 
1 64393U 25128A   26171.14504207 -.00000553  00000+0 -21867-4 0  9995
2 64393  97.3600 297.8630 0014025 102.2155 258.0652 15.20932053 56374
STARLINK-34419          
1 64412U 25129A   26170.36600728  .00003733  00000+0  32043-3 0  9994
2 64412  70.0005 178.2360 0003535 261.7126  98.3633 14.98332929 56530
STARLINK-34275          
1 64413U 25129B   26170.34528294  .00003042  00000+0  26255-3 0  9991
2 64413  70.0006 178.1720 0004022 267.9479  92.1219 14.98336320 56511
STARLINK-34225          
1 64414U 25129C   26170.37435093  .00003663  00000+0  31456-3 0  9997
2 64414  70.0002 178.2688 0003720 266.4435  93.6298 14.98333945 56515
STARLINK-34422          
1 64415U 25129D   26170.35346652  .00001480  00000+0  13180-3 0  9997
2 64415  70.0008 178.2029 0004353 258.8736 101.1934 14.98332295 56455
STARLINK-34514          
1 64416U 25129E   26170.31588300  .00005235  00000+0  44591-3 0  9994
2 64416  70.0007 178.0745 0003331 264.3540  95.7239 14.98358431 56511
STARLINK-34487          
1 64417U 25129F   26170.32007818  .00003579  00000+0  30760-3 0  9998
2 64417  70.0003 178.0851 0003858 267.0286  93.0432 14.98326352 56453
STARLINK-34461          
1 64418U 25129G   26170.37032105  .00011423  00000+0  96254-3 0  9998
2 64418  70.0005 178.2571 0003725 265.1640  94.9094 14.98371577 56513
STARLINK-34512          
1 64419U 25129H   26170.35764416  .00003575  00000+0  30726-3 0  9995
2 64419  70.0007 178.2117 0003946 270.2883  89.7823 14.98332244 56456
STARLINK-34503          
1 64420U 25129J   26170.42873695 -.00003513  00000+0 -28673-3 0  9997
2 64420  70.0013 178.0593 0003709 265.4136  94.6599 14.98338457 56463
STARLINK-34498          
1 64421U 25129K   26170.34929465  .00002161  00000+0  18881-3 0  9992
2 64421  70.0006 178.1892 0004203 264.5068  95.5612 14.98341994 56515
STARLINK-34434          
1 64422U 25129L   26170.37015579 -.00001540  00000+0 -12132-3 0  9993
2 64422  70.0009 178.2598 0003845 260.1971  99.8754 14.98329843 56512
STARLINK-34467          
1 64423U 25129M   26170.33677321  .00003622  00000+0  31106-3 0  9992
2 64423  70.0005 178.1432 0003407 269.2481  90.8288 14.98346495 56510
STARLINK-34468          
1 64424U 25129N   26170.37452215  .00003730  00000+0  32021-3 0  9997
2 64424  70.0012 178.2731 0003534 258.4971 101.5791 14.98329578 56519
STARLINK-34452          
1 64425U 25129P   26170.32441296  .00003051  00000+0  26330-3 0  9992
2 64425  70.0006 178.0975 0003543 268.3309  91.7444 14.98340174 56516
STARLINK-34432          
1 64426U 25129Q   26170.34094464  .00001309  00000+0  11743-3 0  9992
2 64426  70.0006 178.1527 0004054 267.3765  92.6930 14.98339848 56453
STARLINK-34480          
1 64427U 25129R   26170.32424563  .00002276  00000+0  19846-3 0  9994
2 64427  70.0007 178.0935 0003955 266.2776  93.7931 14.98336842 56517
STARLINK-34495          
1 64428U 25129S   26170.33259527  .00002328  00000+0  20277-3 0  9990
2 64428  70.0006 178.1306 0004080 265.9481  94.1211 14.98335442 56510
STARLINK-34501          
1 64429U 25129T   26170.91668981  .00064076  00000+0  53323-2 0  9998
2 64429  70.0010 176.8309 0003720 262.7715 209.4335 14.98304674  5772
STARLINK-34441          
1 64430U 25129U   26170.34511771  .00001803  00000+0  15887-3 0  9994
2 64430  70.0007 178.1719 0004132 264.3733  95.6955 14.98333249 56517
STARLINK-34524          
1 64431U 25129V   26170.32842579  .00003632  00000+0  31200-3 0  9995
2 64431  70.0006 178.1132 0004325 267.1875  92.8789 14.98328286 56450
STARLINK-34506          
1 64432U 25129W   26170.37848541  .00003038  00000+0  26219-3 0  9990
2 64432  70.0002 177.8857 0003992 267.0894  92.9808 14.98338962 56462
