OBJECT_NAME,OBJECT_ID,EPOCH,MEAN_MOTION,ECCENTRICITY,INCLINATION,RA_OF_ASC_NODE,ARG_OF_PERICENTER,MEAN_ANOMALY,EPHEMERIS_TYPE,CLASSIFICATION_TYPE,NORAD_CAT_ID,ELEMENT_SET_NO,REV_AT_EPOCH,BSTAR,MEAN_MOTION_DOT,MEAN_MOTION_DDOT
STARLINK-34100,2025-127R,2026-06-19T15:01:23.573856,15.27595916,.00017844,43.0002,324.3802,272.2853,87.7795,0,U,64385,999,5800,.44513211E-3,.12013E-3,0
STARLINK-34269,2025-127S,2026-06-19T10:46:28.187040,15.27588216,.00011574,42.9993,324.7705,271.3543,88.7176,0,U,64386,999,5803,.55872313E-3,.15148E-3,0
STARLINK-34351,2025-127T,2026-06-19T10:44:37.370400,15.27587927,.00006725,43.0017,324.7600,254.0564,106.0214,0,U,64387,999,5803,.8628705E-3,.23564E-3,0
STARLINK-34198,2025-127U,2026-06-19T12:16:55.389216,15.27583655,.00012494,42.9993,324.3823,274.5370,85.5338,0,U,64388,999,5804,.30894414E-3,.825E-4,0
STARLINK-34279,2025-127V,2026-06-19T12:13:26.184576,15.27593853,.00015872,43.0004,325.2307,261.2624,98.8048,0,U,64389,999,5803,.84622694E-3,.23107E-3,0
STARLINK-34292,2025-127W,2026-06-19T10:07:49.324224,15.27598185,.00012098,43.0023,325.4285,264.7197,95.3516,0,U,64390,999,5802,.59973223E-3,.16287E-3,0
STARLINK-34278,2025-127X,2026-06-19T10:50:11.772960,15.27601855,.00014507,43.0017,324.7866,276.2527,83.8159,0,U,64391,999,5803,.11890372E-2,.32624E-3,0
STARLINK-33802,2025-127Y,2026-06-19T11:58:38.075520,15.27599985,.00018,43.0013,325.1498,265.5544,94.5102,0,U,64392,999,5808,.98183629E-3,.26871E-3,0
ZHANGHENG 1-02 (CSES-2),2025-128A,2026-06-20T03:28:51.634848,15.20932053,.0014025,97.3600,297.8630,102.2155,258.0652,0,U,64393,999,5637,-.21867E-4,-.553E-5,0
STARLINK-34419,2025-129A,2026-06-19T08:47:03.028992,14.98332929,.00035351,70.0005,178.2360,261.7126,98.3633,0,U,64412,999,5653,.32042567E-3,.3733E-4,0
STARLINK-34275,2025-129B,2026-06-19T08:17:12.446016,14.98336320,.00040224,70.0006,178.1720,267.9479,92.1219,0,U,64413,999,5651,.26255466E-3,.3042E-4,0
STARLINK-34225,2025-129C,2026-06-19T08:59:03.920352,14.98333945,.00037208,70.0002,178.2688,266.4435,93.6298,0,U,64414,999,5651,.31456096E-3,.3663E-4,0
STARLINK-34422,2025-129D,2026-06-19T08:28:59.507328,14.98332295,.00043538,70.0008,178.2029,258.8736,101.1934,0,U,64415,999,5645,.13179659E-3,.148E-4,0
STARLINK-34514,2025-129E,2026-06-19T07:34:52.291200,14.98358431,.0003331,70.0007,178.0745,264.3540,95.7239,0,U,64416,999,5651,.44591227E-3,.5235E-4,0
STARLINK-34487,2025-129F,2026-06-19T07:40:54.754752,14.98326352,.00038587,70.0003,178.0851,267.0286,93.0432,0,U,64417,999,5645,.30759724E-3,.3579E-4,0
STARLINK-34461,2025-129G,2026-06-19T08:53:15.738720,14.98371577,.00037251,70.0005,178.2571,265.1640,94.9094,0,U,64418,999,5651,.96253597E-3,.11423E-3,0
STARLINK-34512,2025-129H,2026-06-19T08:35:00.455424,14.98332244,.00039463,70.0007,178.2117,270.2883,89.7823,0,U,64419,999,5645,.30725688E-3,.3575E-4,0
STARLINK-34503,2025-129J,2026-06-19T10:17:22.872480,14.98338457,.00037093,70.0013,178.0593,265.4136,94.6599,0,U,64420,999,5646,-.2867253E-3,-.3513E-4,0
STARLINK-34498,2025-129K,2026-06-19T08:22:59.057760,14.98341994,.00042031,70.0006,178.1892,264.5068,95.5612,0,U,64421,999,5651,.18880659E-3,.2161E-4,0
STARLINK-34434,2025-129L,2026-06-19T08:53:01.460256,14.98329843,.0003845,70.0009,178.2598,260.1971,99.8754,0,U,64422,999,5651,-.12132344E-3,-.154E-4,0
STARLINK-34467,2025-129M,2026-06-19T08:04:57.205344,14.98346495,.0003407,70.0005,178.1432,269.2481,90.8288,0,U,64423,999,5651,.3110636E-3,.3622E-4,0
STARLINK-34468,2025-129N,2026-06-19T08:59:18.713760,14.98329578,.00035347,70.0012,178.2731,258.4971,101.5791,0,U,64424,999,5651,.32021124E-3,.373E-4,0
STARLINK-34452,2025-129P,2026-06-19T07:47:09.279744,14.98340174,.00035434,70.0006,178.0975,268.3309,91.7444,0,U,64425,999,5651,.26329546E-3,.3051E-4,0
STARLINK-34432,2025-129Q,2026-06-19T08:10:57.616896,14.98339848,.00040542,70.0006,178.1527,267.3765,92.6930,0,U,64426,999,5645,.11742533E-3,.1309E-4,0
STARLINK-34480,2025-129R,2026-06-19T07:46:54.822432,14.98336842,.00039559,70.0007,178.0935,266.2776,93.7931,0,U,64427,999,5651,.19845792E-3,.2276E-4,0
STARLINK-34495,2025-129S,2026-06-19T07:58:56.231328,14.98335442,.000408,70.0006,178.1306,265.9481,94.1211,0,U,64428,999,5651,.20276955E-3,.2328E-4,0
STARLINK-34501,2025-129T,2026-06-19T22:00:01.999584,14.98304674,.00037205,70.0010,176.8309,262.7715,209.4335,0,U,64429,999,577,.53322509E-2,.64076E-3,0
STARLINK-34441,2025-129U,2026-06-19T08:16:58.170144,14.98333249,.00041322,70.0007,178.1719,264.3733,95.6955,0,U,64430,999,5651,.15886854E-3,.1803E-4,0
STARLINK-34524,2025-129V,2026-06-19T07:52:55.988256,14.98328286,.00043254,70.0006,178.1132,267.1875,92.8789,0,U,64431,999,5645,.31200144E-3,.3632E-4,0
STARLINK-34506,2025-129W,2026-06-19T09:05:01.139424,14.98338962,.00039926,70.0002,177.8857,267.0894,92.9808,0,U,64432,999,5646,.26219293E-3,.3038E-4,0
